CUTE-1 (CO-55)          
1 27844U 03031E   20179.49251170  .00000016  00000-0  26926-4 0  9996
2 27844  98.6809 187.0759 0010516  33.0050 327.1782 14.22243998881560
CUBESAT XI-IV (CO-57)   
1 27848U 03031J   20178.95911378  .00000015  00000-0  26412-4 0  9992
2 27848  98.6875 187.1084 0010631  45.7607 314.4441 14.21830004881329
CUBESAT XI-V            
1 28895U 05043F   20179.05239797  .00000094  00000-0  26975-4 0  9991
2 28895  98.0112 315.1392 0015492 248.5289 111.4262 14.63778241782241
CUTE-1.7+APD II (CO-65) 
1 32785U 08021C   20179.21376137  .00000113  00000-0  17710-4 0  9990
2 32785  97.5728 166.8010 0014645  99.8136 260.4736 14.88480878659322
AAUSAT-II               
1 32788U 08021F   20179.29097998  .00000713  00000-0  69969-4 0  9995
2 32788  97.4906 183.3525 0012470  30.4844 329.7100 14.95076610660888
DELFI-C3 (DO-64)        
1 32789U 08021G   20179.09031486  .00000533  00000-0  38834-4 0  9991
2 32789  97.4171 221.5552 0010289 285.0098  74.9992 15.07757369663368
SEEDS II (CO-66)        
1 32791U 08021J   20178.99649773  .00000316  00000-0  37249-4 0  9994
2 32791  97.5405 172.7256 0014865  72.8699 287.4146 14.91061952659807
SWISSCUBE               
1 35932U 09051B   20179.04131501  .00000076  00000-0  28303-4 0  9994
2 35932  98.6106   1.6325 0008859  97.0709 263.1496 14.56401298571221
BEESAT-1                
1 35933U 09051C   20179.43536730  .00000067  00000-0  26042-4 0  9999
2 35933  98.6102   3.9044 0006975 106.4587 253.7376 14.56476217571435
ITUPSAT1                
1 35935U 09051E   20179.09228963  .00000053  00000-0  23423-4 0  9994
2 35935  98.6208   3.7491 0009287 107.3984 252.8229 14.55621660571102
TISAT 1                 
1 36799U 10035E   20179.23252456  .00000312  00000-0  37394-4 0  9997
2 36799  98.1951 349.8815 0011003 301.5419  58.4723 14.91370502540386
M-CUBED & EXP-1 PRIME   
1 37855U 11061F   20179.47358493  .00000776  00000-0  45943-4 0  9998
2 37855 101.7138 273.0440 0170836  45.2463 316.2507 15.06345788473184
AEROCUBE 4.5A           
1 38767U 12048K   20179.12983301  .00000051  00000-0  19690-4 0  9997
2 38767  64.6648 206.0611 0139991 133.0490 228.2446 14.92303774 43246
AEROCUBE 4.5B           
1 38768U 12048L   20179.24903088  .00000155  00000-0  26451-4 0  9993
2 38768  64.6654 174.0626 0128910 128.8016 232.4695 14.95975736 43349
STRAND-1                
1 39090U 13009E   20179.32823661  .00000013  00000-0  19594-4 0  9990
2 39090  98.4557  23.3372 0007939 253.5454 106.4860 14.35134960384126
SOMP                    
1 39134U 13015E   20179.43574724  .00000569  00000-0  34541-4 0  9996
2 39134  64.8625 245.4938 0032396 241.7613 118.0243 15.21086055397578
BEESAT-3                
1 39135U 13015F   20179.38623632  .00000637  00000-0  40451-4 0  9997
2 39135  64.8673 269.3319 0035782 244.8962 114.8450 15.18203701397112
BEESAT-2                
1 39136U 13015G   20179.43783868  .00000525  00000-0  35735-4 0  9997
2 39136  64.8706 274.1708 0031389 278.4468  81.3101 15.17588737397024
NEE-01 PEGASO           
1 39151U 13018B   20179.27098272  .00000082  00000-0  17793-4 0  9999
2 39151  97.9738 278.0186 0018366  70.7199 289.5997 14.80176216387130
ESTCUBE 1               
1 39161U 13021C   20179.47454060  .00000093  00000-0  22491-4 0  9990
2 39161  97.9642 262.3038 0008799 201.3277 158.7564 14.72326142383516
POPACS 1                
1 39268U 13055D   20179.03176477  .00003930  00000-0  10721-3 0  9995
2 39268  81.0023 286.0322 0616736 193.6967 164.6821 14.39326771349374
POPACS 2                
1 39269U 13055E   20179.40250324  .00000660  00000-0  18786-4 0  9998
2 39269  81.0146 323.8779 0676803 291.7551  61.2931 14.25492275348626
POPACS 3                
1 39270U 13055F   20179.14930975  .00000920  00000-0  27869-4 0  9999
2 39270  81.0158 345.9377 0709755 355.0791   4.3638 14.16916795347206
ZACUBE-1 (TSHEPISOSAT)  
1 39417U 13066B   20178.95712112  .00000121  00000-0  21689-4 0  9990
2 39417  97.5644 176.4514 0057332 246.1581 113.3617 14.81283970356443
WNISAT-1                
1 39423U 13066H   20179.37096412  .00000048  00000-0  19535-4 0  9997
2 39423  97.8019 100.1804 0174178 224.4189 134.2924 14.53123407349864
TRITON-1                
1 39427U 13066M   20179.42991316  .00000155  00000-0  32513-4 0  9994
2 39427  97.7249 139.7997 0114980  46.4690 314.5993 14.68010439353328
GOMX-1                  
1 39430U 13066Q   20179.47264434  .00000097  00000-0  26432-4 0  9995
2 39430  97.7917 117.3969 0151410 152.5686 208.3608 14.59405695351264
CUBEBUG-2 (LO-74)       
1 39440U 13066AA  20179.18367888  .00000129  00000-0  25132-4 0  9993
2 39440  97.6311 161.1471 0078902 309.4211  50.0032 14.76020209355213
NEE-02 KRYSAOR          
1 39441U 13066AB  20179.20187160  .00000073  00000-0  17765-4 0  9991
2 39441  97.6384 158.6770 0080618 318.4372  41.0726 14.75023433355000
FUNCUBE-1 (AO-73)       
1 39444U 13066AE  20179.42200642  .00000166  00000-0  26698-4 0  9997
2 39444  97.5587 179.1268 0056534 236.5302 123.0501 14.82138843355439
UWE-3                   
1 39446U 13066AG  20178.95254362  .00000104  00000-0  20587-4 0  9997
2 39446  97.5982 168.1102 0068322 279.0925  80.2561 14.78554034354568
AEROCUBE 5A             
1 39465U 13072D   20179.12630706  .00002060  00000-0  19985-3 0  9997
2 39465 120.4924 198.1888 0256077 254.3974 102.8679 14.76492025 42790
AEROCUBE 5B             
1 39466U 13072E   20179.20510158  .00002174  00000-0  17928-3 0  9996
2 39466 120.4875 235.7777 0228363 263.7567  93.7434 14.86120845 43023
BRITE-CA1 (TORONTO)     
1 40020U 14033L   20179.50967320 -.00000007  00000-0  69906-5 0  9991
2 40020  97.7308   7.1448 0088347  41.3720 319.4132 14.66648868322246
DUCHIFAT-1              
1 40021U 14033M   20179.07813671  .00000268  00000-0  32991-4 0  9994
2 40021  97.9430 110.3733 0011311 254.9390 105.0576 14.90917840327322
NANOSATC-BR1            
1 40024U 14033Q   20179.37501234  .00000124  00000-0  18730-4 0  9995
2 40024  97.9276 107.0208 0010646 258.8069 101.1952 14.90085690327233
QB50P1                  
1 40025U 14033R   20179.33232593  .00000196  00000-0  26798-4 0  9993
2 40025  97.9153 103.6409 0010903 267.3364  92.6605 14.89147233327073
QB50P2                  
1 40032U 14033Y   20179.04872518  .00000140  00000-0  21034-4 0  9993
2 40032  97.9039 100.8064 0010291 264.9185  95.0857 14.88672468326936
PERSEUS-M2              
1 40037U 14033AD  20179.35872921  .00000049  00000-0  11766-4 0  9999
2 40037  97.8886  95.6332 0012936 281.4455  78.5307 14.86547472326638
PERSEUS-M1              
1 40039U 14033AF  20178.89954195  .00000027  00000-0  92994-5 0  9992
2 40039  97.8850  93.9416 0012781 280.9238  79.0539 14.86168243325970
POLYITAN-1              
1 40042U 14033AJ  20179.06115816  .00000162  00000-0  23335-4 0  9997
2 40042  97.9238 103.9050 0013066 258.0939 101.8813 14.88894559326936
TIGRISAT                
1 40043U 14033AK  20179.12573279  .00000074  00000-0  18298-4 0  9990
2 40043  97.7090  34.9148 0059156 328.7831  30.9869 14.74384383323471
AEROCUBE 6A             
1 40045U 14033AM  20179.04386115  .00000098  00000-0  21479-4 0  9995
2 40045  97.7343  40.3673 0056822 320.5184  39.1892 14.75583413323761
AEROCUBE 6B             
1 40046U 14033AN  20179.12159507  .00000190  00000-0  34641-4 0  9996
2 40046  97.7252  39.7031 0056026 319.2403  40.4622 14.75573905323914
UKUBE-1                 
1 40074U 14037F   20179.47865275  .00000164  00000-0  26821-4 0  9997
2 40074  98.4543   8.4133 0005651  87.3155 272.8674 14.84276534323249
BRITE-PL2 (HEWELIUSZ)   
1 40119U 14049B   20179.49781180  .00000088  00000-0  16830-4 0  9998
2 40119  97.8952 271.6182 0018838  77.7162 282.6160 14.84512035317270
FIREBIRD 4              
1 40378U 15003C   20179.18635036  .00000794  00000-0  34682-4 0  9999
2 40378  99.0944 241.4816 0122689 281.5776  77.1702 15.20113753298796
GRIFEX                  
1 40379U 15003D   20179.37786410  .00000576  00000-0  28663-4 0  9994
2 40379  99.1013 233.5725 0131789 306.3296  52.5823 15.16444730298350
EXOCUBE (CP10)          
1 40380U 15003E   20179.13043157  .00000476  00000-0  25602-4 0  9993
2 40380  99.1083 228.9029 0137066 322.0765  37.0867 15.14397962298015
AEROCUBE 8A             
1 40659U 15025J   20179.20000485  .00012333  00000-0  13261-3 0  9993
2 40659  55.0153 247.8205 0103643 199.5841 160.1203 15.57813220 45070
AEROCUBE 8B             
1 40660U 15025K   20179.17563774  .00011558  00000-0  12340-3 0  9991
2 40660  55.0127 245.8412 0102657 201.5139 158.1570 15.58184003 45085
TIANWANG 1C (TW-1C)     
1 40926U 15051B   20179.40035942  .00015023  00000-0  14692-3 0  9995
2 40926  97.0820 231.2408 0007008  64.8944 352.1860 15.66210825268589
TIANWANG 1A (TW-1A)     
1 40928U 15051D   20179.33262596  .00001830  00000-0  43819-4 0  9991
2 40928  97.1077 206.9228 0011576 143.0818 340.9375 15.42657496266891
EXACTVIEW 9             
1 40936U 15052G   20178.42154557  .00000706  00000-0  96268-5 0  9995
2 40936   6.0033 276.3571 0010242  28.1401 331.9279 14.76576069256550
AEROCUBE 5C             
1 40965U 15058B   20179.26428212  .00000025  00000-0  22824-4 0  9998
2 40965  64.7785 114.2096 0168835  70.2475 291.6749 14.74528750 42751
AEROCUBE 7              
1 40966U 15058C   20179.10694471  .00000031  00000-0  23463-4 0  9991
2 40966  64.7787 113.1535 0167745  69.9742 291.9334 14.74829456 42739
ATHENOXAT 1             
1 41168U 15077C   20179.11588506  .00001322  00000-0  33230-4 0  9996
2 41168  14.9895 350.5232 0011425 263.1639  96.7382 15.14398848250813
GALASSIA                
1 41170U 15077E   20179.09652329  .00001288  00000-0  30952-4 0  9990
2 41170  14.9897 342.4812 0012704 289.4411  70.4538 15.14693211250883
VELOX-II                
1 41171U 15077F   20179.21251860  .00001143  00000-0  26859-4 0  9991
2 41171  14.9924  26.4834 0008784 186.7125 173.3079 15.11713622250500
